SILVERSAT               
1 66909U 98067XV  25349.62370561  .00048941  00000+0  79995-3 0  9990
2 66909  51.6296 128.0480 0004116 244.8670 115.1892 15.52037636  2060
1998-067XW              
1 66910U 98067XW  25349.68641401  .00044307  00000+0  72313-3 0  9991
2 66910  51.6293 127.7170 0004767 223.5527 136.5086 15.52120253  2079
1998-067XX              
1 66911U 98067XX  25349.55639860  .00053353  00000+0  85851-3 0  9996
2 66911  51.6293 128.3487 0004472 225.8375 134.2248 15.52435494  2045
1998-067XY              
1 66912U 98067XY  25349.62640120  .00035151  00000+0  59034-3 0  9996
2 66912  51.6298 128.0660 0004277 239.2298 120.8270 15.51430232  2058
2025-284A               
1 66913U 25284A   25349.29776507  .00007498  00000+0  35654-3 0  9995
2 66913  80.4038 126.5220 0011993 195.9870 164.0981 15.19018708  1516
2025-284B               
1 66914U 25284B   25349.95618355  .00007704  00000+0  36717-3 0  9996
2 66914  80.4046 125.6889 0008202 236.1438 123.9010 15.18980224  1612
HULIANWANG DIGUI-105    
1 66915U 25285A   25349.97747775  .00000161  00000+0  19733-3 0  9998
2 66915  50.0044 104.0878 0007954 293.5480  66.4588 14.03716395  1362
HULIANWANG DIGUI-106    
1 66916U 25285B   25349.90333510 -.00000136  00000+0  99112-5 0  9994
2 66916  50.0054 104.3632 0006766 286.4262  73.5899 14.03701326  1355
HULIANWANG DIGUI-107    
1 66917U 25285C   25349.97270437  .00000111  00000+0  16436-3 0  9998
2 66917  50.0020 104.0584 0007420 295.2556  64.7579 14.04225370  1363
HULIANWANG DIGUI-108    
1 66918U 25285D   25349.90063552  .00000021  00000+0  10776-3 0  9991
2 66918  50.0041 104.3470 0006380 291.8226  68.2000 14.04402950  1352
HULIANWANG DIGUI-109    
1 66919U 25285E   25349.90003046  .00000039  00000+0  11811-3 0  9994
2 66919  50.0066 104.3472 0007926 302.4802  57.5336 14.04996483  1350
HULIANWANG DIGUI-110    
1 66920U 25285F   25349.97026470  .00000011  00000+0  10035-3 0  9996
2 66920  50.0109 104.0570 0005654 300.7801  59.2547 14.05095232  1369
