CCSDS_OMM_VERS = 2.0
CREATION_DATE  = 
ORIGINATOR     = 

OBJECT_NAME    = SILVERSAT
OBJECT_ID      = 1998-067XV
CENTER_NAME    = EARTH
REF_FRAME      = TEME
TIME_SYSTEM    = UTC
MEAN_ELEMENT_THEORY = SGP/SGP4

EPOCH          = 2025-12-15T14:58:08.164704
MEAN_MOTION    = 15.52037636
ECCENTRICITY   = .00041166
INCLINATION    = 51.6296
RA_OF_ASC_NODE = 128.0480
ARG_OF_PERICENTER = 244.8670
MEAN_ANOMALY   = 115.1892

EPHEMERIS_TYPE = 0
CLASSIFICATION_TYPE = U
NORAD_CAT_ID   = 66909
ELEMENT_SET_NO = 999
REV_AT_EPOCH   = 206
BSTAR          = .79995468E-3
MEAN_MOTION_DOT = .48941E-3
MEAN_MOTION_DDOT = 0

CCSDS_OMM_VERS = 2.0
CREATION_DATE  = 
ORIGINATOR     = 

OBJECT_NAME    = 1998-067XW
OBJECT_ID      = 1998-067XW
CENTER_NAME    = EARTH
REF_FRAME      = TEME
TIME_SYSTEM    = UTC
MEAN_ELEMENT_THEORY = SGP/SGP4

EPOCH          = 2025-12-15T16:28:26.170464
MEAN_MOTION    = 15.52120253
ECCENTRICITY   = .00047674
INCLINATION    = 51.6293
RA_OF_ASC_NODE = 127.7170
ARG_OF_PERICENTER = 223.5527
MEAN_ANOMALY   = 136.5086

EPHEMERIS_TYPE = 0
CLASSIFICATION_TYPE = U
NORAD_CAT_ID   = 66910
ELEMENT_SET_NO = 999
REV_AT_EPOCH   = 207
BSTAR          = .72313444E-3
MEAN_MOTION_DOT = .44307E-3
MEAN_MOTION_DDOT = 0

CCSDS_OMM_VERS = 2.0
CREATION_DATE  = 
ORIGINATOR     = 

OBJECT_NAME    = 1998-067XX
OBJECT_ID      = 1998-067XX
CENTER_NAME    = EARTH
REF_FRAME      = TEME
TIME_SYSTEM    = UTC
MEAN_ELEMENT_THEORY = SGP/SGP4

EPOCH          = 2025-12-15T13:21:12.839040
MEAN_MOTION    = 15.52435494
ECCENTRICITY   = .00044725
INCLINATION    = 51.6293
RA_OF_ASC_NODE = 128.3487
ARG_OF_PERICENTER = 225.8375
MEAN_ANOMALY   = 134.2248

EPHEMERIS_TYPE = 0
CLASSIFICATION_TYPE = U
NORAD_CAT_ID   = 66911
ELEMENT_SET_NO = 999
REV_AT_EPOCH   = 204
BSTAR          = .85850941E-3
MEAN_MOTION_DOT = .53353E-3
MEAN_MOTION_DDOT = 0

CCSDS_OMM_VERS = 2.0
CREATION_DATE  = 
ORIGINATOR     = 

OBJECT_NAME    = 1998-067XY
OBJECT_ID      = 1998-067XY
CENTER_NAME    = EARTH
REF_FRAME      = TEME
TIME_SYSTEM    = UTC
MEAN_ELEMENT_THEORY = SGP/SGP4

EPOCH          = 2025-12-15T15:02:01.063680
MEAN_MOTION    = 15.51430232
ECCENTRICITY   = .00042771
INCLINATION    = 51.6298
RA_OF_ASC_NODE = 128.0660
ARG_OF_PERICENTER = 239.2298
MEAN_ANOMALY   = 120.8270

EPHEMERIS_TYPE = 0
CLASSIFICATION_TYPE = U
NORAD_CAT_ID   = 66912
ELEMENT_SET_NO = 999
REV_AT_EPOCH   = 205
BSTAR          = .59034446E-3
MEAN_MOTION_DOT = .35151E-3
MEAN_MOTION_DDOT = 0

CCSDS_OMM_VERS = 2.0
CREATION_DATE  = 
ORIGINATOR     = 

OBJECT_NAME    = 2025-284A
OBJECT_ID      = 2025-284A
CENTER_NAME    = EARTH
REF_FRAME      = TEME
TIME_SYSTEM    = UTC
MEAN_ELEMENT_THEORY = SGP/SGP4

EPOCH          = 2025-12-15T07:08:46.902048
MEAN_MOTION    = 15.19018708
ECCENTRICITY   = .00119938
INCLINATION    = 80.4038
RA_OF_ASC_NODE = 126.5220
ARG_OF_PERICENTER = 195.9870
MEAN_ANOMALY   = 164.0981

EPHEMERIS_TYPE = 0
CLASSIFICATION_TYPE = U
NORAD_CAT_ID   = 66913
ELEMENT_SET_NO = 999
REV_AT_EPOCH   = 151
BSTAR          = .35654166E-3
MEAN_MOTION_DOT = .7498E-4
MEAN_MOTION_DDOT = 0

CCSDS_OMM_VERS = 2.0
CREATION_DATE  = 
ORIGINATOR     = 

OBJECT_NAME    = 2025-284B
OBJECT_ID      = 2025-284B
CENTER_NAME    = EARTH
REF_FRAME      = TEME
TIME_SYSTEM    = UTC
MEAN_ELEMENT_THEORY = SGP/SGP4

EPOCH          = 2025-12-15T22:56:54.258720
MEAN_MOTION    = 15.18980224
ECCENTRICITY   = .00082027
INCLINATION    = 80.4046
RA_OF_ASC_NODE = 125.6889
ARG_OF_PERICENTER = 236.1438
MEAN_ANOMALY   = 123.9010

EPHEMERIS_TYPE = 0
CLASSIFICATION_TYPE = U
NORAD_CAT_ID   = 66914
ELEMENT_SET_NO = 999
REV_AT_EPOCH   = 161
BSTAR          = .36716852E-3
MEAN_MOTION_DOT = .7704E-4
MEAN_MOTION_DDOT = 0

CCSDS_OMM_VERS = 2.0
CREATION_DATE  = 
ORIGINATOR     = 

OBJECT_NAME    = HULIANWANG DIGUI-105
OBJECT_ID      = 2025-285A
CENTER_NAME    = EARTH
REF_FRAME      = TEME
TIME_SYSTEM    = UTC
MEAN_ELEMENT_THEORY = SGP/SGP4

EPOCH          = 2025-12-15T23:27:34.077600
MEAN_MOTION    = 14.03716395
ECCENTRICITY   = .00079541
INCLINATION    = 50.0044
RA_OF_ASC_NODE = 104.0878
ARG_OF_PERICENTER = 293.5480
MEAN_ANOMALY   = 66.4588

EPHEMERIS_TYPE = 0
CLASSIFICATION_TYPE = U
NORAD_CAT_ID   = 66915
ELEMENT_SET_NO = 999
REV_AT_EPOCH   = 136
BSTAR          = .19732887E-3
MEAN_MOTION_DOT = .161E-5
MEAN_MOTION_DDOT = 0

CCSDS_OMM_VERS = 2.0
CREATION_DATE  = 
ORIGINATOR     = 

OBJECT_NAME    = HULIANWANG DIGUI-106
OBJECT_ID      = 2025-285B
CENTER_NAME    = EARTH
REF_FRAME      = TEME
TIME_SYSTEM    = UTC
MEAN_ELEMENT_THEORY = SGP/SGP4

EPOCH          = 2025-12-15T21:40:48.152640
MEAN_MOTION    = 14.03701326
ECCENTRICITY   = .00067662
INCLINATION    = 50.0054
RA_OF_ASC_NODE = 104.3632
ARG_OF_PERICENTER = 286.4262
MEAN_ANOMALY   = 73.5899

EPHEMERIS_TYPE = 0
CLASSIFICATION_TYPE = U
NORAD_CAT_ID   = 66916
ELEMENT_SET_NO = 999
REV_AT_EPOCH   = 135
BSTAR          = .9911186E-5
MEAN_MOTION_DOT = -.136E-5
MEAN_MOTION_DDOT = 0

CCSDS_OMM_VERS = 2.0
CREATION_DATE  = 
ORIGINATOR     = 

OBJECT_NAME    = HULIANWANG DIGUI-107
OBJECT_ID      = 2025-285C
CENTER_NAME    = EARTH
REF_FRAME      = TEME
TIME_SYSTEM    = UTC
MEAN_ELEMENT_THEORY = SGP/SGP4

EPOCH          = 2025-12-15T23:20:41.657568
MEAN_MOTION    = 14.04225370
ECCENTRICITY   = .00074205
INCLINATION    = 50.0020
RA_OF_ASC_NODE = 104.0584
ARG_OF_PERICENTER = 295.2556
MEAN_ANOMALY   = 64.7579

EPHEMERIS_TYPE = 0
CLASSIFICATION_TYPE = U
NORAD_CAT_ID   = 66917
ELEMENT_SET_NO = 999
REV_AT_EPOCH   = 136
BSTAR          = .164357E-3
MEAN_MOTION_DOT = .111E-5
MEAN_MOTION_DDOT = 0

CCSDS_OMM_VERS = 2.0
CREATION_DATE  = 
ORIGINATOR     = 

OBJECT_NAME    = HULIANWANG DIGUI-108
OBJECT_ID      = 2025-285D
CENTER_NAME    = EARTH
REF_FRAME      = TEME
TIME_SYSTEM    = UTC
MEAN_ELEMENT_THEORY = SGP/SGP4

EPOCH          = 2025-12-15T21:36:54.908928
MEAN_MOTION    = 14.04402950
ECCENTRICITY   = .00063805
INCLINATION    = 50.0041
RA_OF_ASC_NODE = 104.3470
ARG_OF_PERICENTER = 291.8226
MEAN_ANOMALY   = 68.2000

EPHEMERIS_TYPE = 0
CLASSIFICATION_TYPE = U
NORAD_CAT_ID   = 66918
ELEMENT_SET_NO = 999
REV_AT_EPOCH   = 135
BSTAR          = .10775564E-3
MEAN_MOTION_DOT = .21E-6
MEAN_MOTION_DDOT = 0

CCSDS_OMM_VERS = 2.0
CREATION_DATE  = 
ORIGINATOR     = 

OBJECT_NAME    = HULIANWANG DIGUI-109
OBJECT_ID      = 2025-285E
CENTER_NAME    = EARTH
REF_FRAME      = TEME
TIME_SYSTEM    = UTC
MEAN_ELEMENT_THEORY = SGP/SGP4

EPOCH          = 2025-12-15T21:36:02.631744
MEAN_MOTION    = 14.04996483
ECCENTRICITY   = .00079266
INCLINATION    = 50.0066
RA_OF_ASC_NODE = 104.3472
ARG_OF_PERICENTER = 302.4802
MEAN_ANOMALY   = 57.5336

EPHEMERIS_TYPE = 0
CLASSIFICATION_TYPE = U
NORAD_CAT_ID   = 66919
ELEMENT_SET_NO = 999
REV_AT_EPOCH   = 135
BSTAR          = .11810987E-3
MEAN_MOTION_DOT = .39E-6
MEAN_MOTION_DDOT = 0

CCSDS_OMM_VERS = 2.0
CREATION_DATE  = 
ORIGINATOR     = 

OBJECT_NAME    = HULIANWANG DIGUI-110
OBJECT_ID      = 2025-285F
CENTER_NAME    = EARTH
REF_FRAME      = TEME
TIME_SYSTEM    = UTC
MEAN_ELEMENT_THEORY = SGP/SGP4

EPOCH          = 2025-12-15T23:17:10.870080
MEAN_MOTION    = 14.05095232
ECCENTRICITY   = .0005654
INCLINATION    = 50.0109
RA_OF_ASC_NODE = 104.0570
ARG_OF_PERICENTER = 300.7801
MEAN_ANOMALY   = 59.2547

EPHEMERIS_TYPE = 0
CLASSIFICATION_TYPE = U
NORAD_CAT_ID   = 66920
ELEMENT_SET_NO = 999
REV_AT_EPOCH   = 136
BSTAR          = .10035448E-3
MEAN_MOTION_DOT = .11E-6
MEAN_MOTION_DDOT = 0

